ONEWEB-0319             
1 49105U 21075AG  25330.72757319  .00001822  00000+0  46582-2 0  9997
2 49105  87.9125  46.1334 0001772 113.8883 246.2434 13.17640384206946
ONEWEB-0323             
1 49106U 21075AH  25330.70727520  .00000397  00000+0  10690-2 0  9994
2 49106  87.8958  30.8692 0001160 113.5606 246.5644 13.12442071207998
ONEWEB-0329             
1 49107U 21075AJ  25330.73601863  .00000085  00000+0  18554-3 0  9991
2 49107  87.9120  46.1337 0001608 101.1190 259.0123 13.17648367206929
ONEWEB-0330             
1 49108U 21075AK  25330.73684986  .00000063  00000+0  12965-3 0  9995
2 49108  87.9125  46.1390 0001637  95.2577 264.8741 13.17647973206964
ONEWEB-0292             
1 49186U 21083A   25330.60934313  .00000295  00000+0  77234-3 0  9995
2 49186  87.8985   0.5271 0001680  98.4643 261.6677 13.13470588204336
ONEWEB-0303             
1 49187U 21083B   25330.63788799  .00000037  00000+0  61479-4 0  9993
2 49187  87.9199  15.6866 0001664 101.4070 258.7249 13.18684255203281
ONEWEB-0306             
1 49188U 21083C   25330.55211671  .00000105  00000+0  23247-3 0  9991
2 49188  87.9199  15.6884 0001979  92.8665 267.2694 13.18684763203311
ONEWEB-0307             
1 49189U 21083D   25330.60340918  .00000139  00000+0  34666-3 0  9999
2 49189  87.8979   0.5203 0001787  95.6510 264.4823 13.13469173204339
